ONEWEB-0627             
1 55168U 23004AE  23187.25001157  .00000014  00000+0  00000+0 0  9999
2 55168  87.9175 219.8695 0002551 110.3433 293.6822 13.35030979 25663
ONEWEB-0628             
1 55169U 23004AF  23186.80593218 -.00038303  00000+0 -71005-2 0  9994
2 55169  86.6323 211.7272 0007031  39.3641 320.8083 14.65637587 26133
ONEWEB-0629             
1 55170U 23004AG  23187.25001157  .00000014  00000+0  00000+0 0  9992
2 55170  87.8277 219.8654 0013800  10.8238  69.4211 13.42806769 25666
ONEWEB-0631             
1 55171U 23004AH  23186.33620738  .00000646  00000+0  11370-3 0  9990
2 55171  86.6302 211.9208 0003012  58.8614 301.2894 14.65999629 26068
ONEWEB-0709             
1 55172U 23004AJ  23187.13667968  .00000103  00000+0  20952-3 0  9990
2 55172  87.9451 235.1257 0002065  99.9811 260.1557 13.24237727 24674
ONEWEB-0710             
1 55173U 23004AK  23187.25001157  .00000014  00000+0  00000+0 0  9995
2 55173  87.8565 219.8551 0014927  16.6180 180.9377 13.40606953 25669
ONEWEB-0711             
1 55174U 23004AL  23187.05325829 -.00000138  00000+0 -35246-3 0  9992
2 55174  87.9445 235.0978 0002199  90.2864 269.8523 13.24426831 24639
ONEWEB-0713             
1 55175U 23004AM  23186.84509844  .00000021  00000+0  18867-4 0  9990
2 55175  87.9399 235.1290 0002499 101.2947 258.8469 13.24028825 24586
ONEWEB-0715             
1 55176U 23004AN  23186.36640363  .00000110  00000+0  22492-3 0  9997
2 55176  87.9430 235.2734 0002243 106.8743 253.2639 13.24327260 24571
ONEWEB-0716             
1 55177U 23004AP  23187.25001157  .00000014  00000+0  00000+0 0  9999
2 55177  87.8955 219.9054 0014882  17.7554  83.9166 13.36761223 25667
ONEWEB-0717             
1 55178U 23004AQ  23187.25001157  .00000014  00000+0  00000+0 0  9990
2 55178  87.9349 219.2613 0008868 354.7902 120.3923 13.41498345 25719
ONEWEB-0719             
1 55179U 23004AR  23187.25001157  .00000014  00000+0  00000+0 0  9991
2 55179  87.8977 219.8347 0004078  13.6939  16.8084 13.36754671 25668
ONEWEB-0530             
1 55796U 23029A   23186.36191983  .00002892  00000+0  28121-3 0  9995
2 55796  86.5081 147.2064 0004441  76.6111 283.5612 14.92204719 18231
ONEWEB-0534             
1 55797U 23029B   23186.63417836  .00002560  00000+0  24899-3 0  9994
2 55797  86.5035 147.0199 0004564  76.4247 283.7489 14.92153342 18253
ONEWEB-0556             
1 55798U 23029C   23186.35529675  .00002915  00000+0  28291-3 0  9993
2 55798  86.5074 147.1885 0003552  65.5409 294.6189 14.92289276 18215
ONEWEB-0562             
1 55799U 23029D   23186.64288522  .00002927  00000+0  28586-3 0  9999
2 55799  86.5039 147.0284 0004131  67.4328 292.7336 14.92040786 18252
ONEWEB-0563             
1 55800U 23029E   23186.36782630  .00003082  00000+0  30049-3 0  9990
2 55800  86.5083 147.2126 0004495  79.2053 280.9681 14.92128625 18217
ONEWEB-0564             
1 55801U 23029F   23186.35742248  .00002888  00000+0  28047-3 0  9999
2 55801  86.5041 147.1431 0003581  66.2038 293.9565 14.92263686 18238
ONEWEB-0638             
1 55802U 23029G   23187.25001157 -.00957755  00000+0 -52618+0 0  9998
2 55802  86.9461 148.5067 0006728  74.3092  56.9265 14.14914931 18262
ONEWEB-0639             
1 55803U 23029H   23186.64811068  .00000037  00000+0  47626-4 0  9999
2 55803  87.9755 159.3647 0000621   9.9918 350.1234 13.33003144 17451
ONEWEB-0640             
1 55804U 23029J   23186.91668981 -.00955570  00000+0 -49350+0 0  9998
2 55804  87.0106 148.7587 0007662  85.6813  26.8968 14.18226288 18187
ONEWEB-0641             
1 55805U 23029K   23186.64765387  .00000307  00000+0  60397-3 0  9992
2 55805  87.9821 159.4022 0001896  60.5850 299.5480 13.32796440 17465
ONEWEB-0642             
1 55806U 23029L   23186.92663212  .00003402  00000+0  69333-2 0  9995
2 55806  88.0405 159.2228 0001198 100.0619 260.0657 13.33008254 17492
ONEWEB-0643             
1 55807U 23029M   23187.25001157 -.00941011  00000+0 -52724+0 0  9999
2 55807  86.9352 148.6329 0001039 345.2871  92.2854 14.13808418 18250
ONEWEB-0644             
1 55808U 23029N   23186.33672329  .00004467  00000+0  91262-2 0  9999
2 55808  87.9785 159.4282 0001845 137.3904 222.7380 13.32901558 17412
ONEWEB-0645             
1 55809U 23029P   23186.93275458  .00000066  00000+0  10778-3 0  9993
2 55809  87.9758 159.3051 0001502  94.7510 265.3802 13.33030594 17499
ONEWEB-0646             
1 55810U 23029Q   23186.68519672  .00000023  00000+0  20097-4 0  9995
2 55810  87.9757 159.3773 0001688 113.1244 247.0074 13.33013133 17449
ONEWEB-0648             
1 55811U 23029R   23187.25001157 -.00387821  00000+0 -21581+0 0  9994
2 55811  86.9285 148.5138 0002485  87.0047 275.9160 14.13524746 18269
ONEWEB-0649             
1 55812U 23029S   23186.64247690  .00000013  00000+0 -15842-5 0  9994
2 55812  87.9787 159.3911 0001615  66.4584 293.6726 13.32945521 17473
ONEWEB-0650             
1 55813U 23029T   23186.38157149  .00000842  00000+0  16963-2 0  9996
2 55813  87.9829 159.4038 0002307 159.4938 200.6296 13.32964623 17415
ONEWEB-0652             
1 55814U 23029U   23187.25001157 -.00859046  00000+0 -52098+0 0  9997
2 55814  86.9049 148.6070 0001068 347.2580 140.0595 14.09721201 18225
ONEWEB-0653             
1 55815U 23029V   23186.91668981 -.00925577  00000+0 -51237+0 0  9991
2 55815  86.9233 148.6585 0002834  45.7812 332.3556 14.14408927 18183
ONEWEB-0654             
1 55816U 23029W   23187.25001157 -.00927666  00000+0 -48476+0 0  9998
2 55816  86.9821 148.4467 0006576  63.1793   8.5766 14.17508552 18243
ONEWEB-0656             
1 55817U 23029X   23186.59403181  .00002522  00000+0  23679-3 0  9993
2 55817  86.5050 146.9506 0003721  75.2222 284.9419 14.93539804 18266
ONEWEB-0657             
1 55818U 23029Y   23187.25001157  .00026777  00000+0  55122-1 0  9999
2 55818  87.9714 159.2688 0004236 189.5619 309.1164 13.32402790 17539
ONEWEB-0658             
1 55819U 23029Z   23186.91668981  .00010607  00000+0  21681-1 0  9994
2 55819  87.9737 159.2646 0001412  86.7905 309.8255 13.32940015 17498
ONEWEB-0660             
1 55820U 23029AA  23186.91668981 -.01020554  00000+0 -57091+0 0  9993
2 55820  86.9397 148.6516 0002459  29.5974  41.2814 14.14155162 18213
ONEWEB-0661             
1 55821U 23029AB  23186.91668981 -.01091291  00000+0 -62084+0 0  9998
2 55821  86.9231 148.6655 0005501  59.3246   2.7072 14.13470709 18190
ONEWEB-0662             
1 55822U 23029AC  23186.91668981 -.00961715  00000+0 -47839+0 0  9996
2 55822  86.9840 148.6383 0003557  31.6232 326.4786 14.20257598 18221
ONEWEB-0663             
1 55823U 23029AD  23187.13601063  .00002677  00000+0  25201-3 0  9994
2 55823  86.5075 146.7450 0004200  65.3818 294.7848 14.93465678 18341
ONEWEB-0664             
1 55824U 23029AE  23186.94521013  .00002169  00000+0  20433-3 0  9997
2 55824  86.5043 146.7989 0004048  82.8658 277.3031 14.93328226 18315
ONEWEB-0665             
1 55825U 23029AF  23187.25001157 -.00852396  00000+0 -47599+0 0  9990
2 55825  86.9562 148.4847 0001332  32.5785 140.0590 14.14194201 18249
ONEWEB-0666             
1 55826U 23029AG  23186.60386411  .00002540  00000+0  23934-3 0  9995
2 55826  86.5076 146.9918 0003436  80.0359 280.1258 14.93410270 18263
ONEWEB-0667             
1 55827U 23029AH  23186.39146154  .00002636  00000+0  24749-3 0  9991
2 55827  86.5058 147.0511 0003936  81.6823 278.4851 14.93559174 18236
ONEWEB-0669             
1 55828U 23029AJ  23187.13334420  .00002510  00000+0  23591-3 0  9995
2 55828  86.5051 146.7118 0003060  61.8280 298.3257 14.93497634 18349
ONEWEB-0670             
1 55829U 23029AK  23186.91668981 -.00783502  00000+0 -37852+0 0  9993
2 55829  86.9580 148.6277 0002254  59.9594 255.0542 14.21675913 18197
ONEWEB-0671             
1 55830U 23029AL  23186.33816675  .00000058  00000+0  92445-4 0  9996
2 55830  87.9772 159.4231 0001706  85.4747 274.6589 13.32955380 17409
ONEWEB-0672             
1 55831U 23029AM  23187.13708802  .00002895  00000+0  27282-3 0  9995
2 55831  86.5046 146.7045 0004151  71.1084 289.0595 14.93451276 18348
ONEWEB-0673             
1 55832U 23029AN  23186.31289337  .00000175  00000+0  33049-3 0  9999
2 55832  87.9727 159.5145 0001614 106.2814 253.8504 13.33167684 17422
ONEWEB-0674             
1 55833U 23029AP  23186.91668981 -.01084080  00000+0 -59056+0 0  9994
2 55833  86.9540 148.5907 0005808  52.6057  18.7705 14.15793018 18206
ONEWEB-0675             
1 55834U 23029AQ  23186.91668981  .00021864  00000+0  44723-1 0  9990
2 55834  88.0520 159.2293 0002309 190.8837  47.3926 13.32853190 17522
ONEWEB-0720             
1 55835U 23029AR  23186.37680521  .00001841  00000+0  37501-2 0  9995
2 55835  87.9784 159.4700 0000649  88.9769 271.1445 13.32825399 17358
ONEWEB-0537             
1 56046U 23043A   23187.04129300  .00002965  00000+0  31511-3 0  9998
2 56046  86.8969 103.7847 0002086   7.6400 352.4858 14.88676677 16217
ONEWEB-0538             
1 56047U 23043B   23187.09913520  .00002983  00000+0  31680-3 0  9996
2 56047  86.9010 103.7985 0002773  35.6246 324.5165 14.88701094 16225
ONEWEB-0546             
1 56048U 23043C   23186.06336049  .00002933  00000+0  31177-3 0  9994
2 56048  86.8944 104.1719 0004073 108.4939 251.6730 14.88661130 16071
ONEWEB-0547             
1 56049U 23043D   23186.28884824  .00003338  00000+0  35497-3 0  9997
2 56049  86.9933 104.9432 0002580  28.1369 331.9997 14.88696642 16104
ONEWEB-0548             
1 56050U 23043E   23187.05931628  .00002417  00000+0  25676-3 0  9995
2 56050  86.9027 103.8321 0003644  97.5927 262.5714 14.88610301 16213
ONEWEB-0549             
1 56051U 23043F   23186.02159242  .00002714  00000+0  28804-3 0  9992
2 56051  86.9967 105.0699 0002123  23.1560 336.9762 14.88695301 16063
ONEWEB-0550             
1 56052U 23043G   23187.05893753  .00002552  00000+0  27089-3 0  9993
2 56052  86.9953 104.6697 0001793   8.6978 351.4280 14.88674728 16219
